[{"OBJECT_NAME":"QIANFAN-27","OBJECT_ID":"2024-185J","EPOCH":"2026-03-09T22:56:55.395744","MEAN_MOTION":14.27448593,"ECCENTRICITY":0.00081881,"INCLINATION":88.9753,"RA_OF_ASC_NODE":66.6975,"ARG_OF_PERICENTER":20.0445,"MEAN_ANOMALY":340.107,"EPHEMERIS_TYPE":0,"CLASSIFICATION_TYPE":"U","NORAD_CAT_ID":61560,"ELEMENT_SET_NO":999,"REV_AT_EPOCH":8260,"BSTAR":0.00025107237,"MEAN_MOTION_DOT":6.31e-6,"MEAN_MOTION_DDOT":0},{"OBJECT_NAME":"FENGYUN 1C DEB","OBJECT_ID":"1999-025DLB","EPOCH":"2026-03-08T11:33:46.302624","MEAN_MOTION":14.24454037,"ECCENTRICITY":0.00489932,"INCLINATION":99.1258,"RA_OF_ASC_NODE":258.4512,"ARG_OF_PERICENTER":190.4202,"MEAN_ANOMALY":169.5964,"EPHEMERIS_TYPE":0,"CLASSIFICATION_TYPE":"U","NORAD_CAT_ID":35123,"ELEMENT_SET_NO":999,"REV_AT_EPOCH":62294,"BSTAR":0.00052922543,"MEAN_MOTION_DOT":1.193e-5,"MEAN_MOTION_DDOT":0}]
